P/2020 M1 (PANSTARRS),e,8.6665,142.8544,70.6018,5.248410,0.0819714,0.48288057,55.7294,11/09.0/2021,2000,g 14.5,4.0
# From MPEC 2021-N06
C/2020 M3 (ATLAS),e,23.4716,71.2335,328.4625,26.91063,0.0070602,0.95287833,2.6782,11/09.0/2021,2000,g 14.5,4.0
# From MPEC 2021-R75
A/2020 M4,e,160.1272,348.6222,104.6521,33469,0.0000002,0.99982214,0.0000,11/24.0558/2020,2000,g 14.5,2.0
# From MPEC 2021-U31
C/2020 M5 (ATLAS),h,08/19.8771/2021,93.2238,352.0939,126.3377,1.000142,3.004339,2000,9.0,4.0
# From MPEC 2021-N06
C/2020 N1 (PANSTARRS),h,03/12.2172/2021,29.7037,279.9763,186.7632,1.000506,1.320499,2000,12.5,4.0
# From MPEC 2021-P47
C/2020 N2 (ATLAS),e,161.0348,257.0914,331.2592,102.3906,0.0009513,0.98247560,0.0000,08/23.7486/2020,2000,g 16.0,3.2
# From MPEC 2020-SI8
P/2020 O1 (Lemmon-PANSTARRS),e,5.2259,175.9764,104.5333,2.644585,0.2291753,0.11940973,127.2766,11/09.0/2021,2000,g 15.5,4.0
# From MPEC 2021-UA9
C/2020 O2 (Amaral),h,08/28.5695/2021,71.7491,256.7563,10.3033,1.002436,4.862189,2000,8.0,3.2
# From MPEC 2020-SI8
P/2020 O3 (PANSTARRS),e,8.4415,266.8343,81.5913,4.651735,0.0982385,0.10420738,27.7625,11/09.0/2021,2000,g 12.0,4.0
# From MPEC 2021-BE3
C/2020 P1 (NEOWISE),h,10/20.1917/2020,45.0777,53.5229,8.8893,1.000267,0.341884,2000,14.0,3.2
# From MPEC 2021-U31
C/2020 P3 (ATLAS),e,61.8854,19.4780,82.2514,13321,0.0000006,0.99948862,0.0000,04/20.8814/2021,2000,g  6.0,4.0
# From MPEC 2021-UA9
C/2020 PV6 (PANSTARRS),e,128.2393,329.1441,71.3821,41.72178,0.0036573,0.94497738,0.1609,11/09.0/2021,2000,g 10.0,4.0
# From MPEC 2021-N06
C/2020 Q1 (Borisov),e,142.9153,52.4169,9.9012,58.76908,0.0021877,0.97762704,0.0000,08/14.5984/2020,2000,g 14.0,4.0
# From MPEC 2021-UA9
C/2020 R2 (PANSTARRS),e,53.2263,195.0924,211.7241,412.9677,0.0001174,0.98863840,0.0000,02/24.4116/2022,2000,g  9.0,4.0
# From MPEC 2021-S45
C/2020 R4 (ATLAS),e,164.4632,323.2736,46.7203,98.26456,0.0010118,0.98953126,0.0000,03/01.9502/2021,2000,g 13.5,4.0
# From MPEC 2020-W26
P/2020 R5 (PANSTARRS),e,11.4526,272.9761,82.4216,4.982213,0.0886279,0.31471075,46.9032,11/09.0/2021,2000,g  9.5,6.0
# From MPEC 2020-W26
C/2020 R6 (Rankin),e,82.8205,12.1743,271.9540,523.0755,0.0000824,0.99402198,0.0000,09/10.0221/2019,2000,g 11.0,4.0
# From MPEC 2021-UA9
C/2020 R7 (ATLAS),e,114.8924,268.2787,347.8266,18274,0.0000004,0.99983824,0.0000,09/16.2160/2022,2000,g  7.0,3.2
# From MPEC 2021-BE3
P/2020 S1 (PANSTARRS),e,13.7338,129.4599,254.9126,5.983930,0.0673324,0.50741872,19.9239,11/09.0/2021,2000,g 14.0,4.0
# From MPEC 2021-BE3
C/2020 S2 (PANSTARRS),e,22.3985,197.6755,202.2859,10.19449,0.0302800,0.82774205,9.7508,11/09.0/2021,2000,g 17.0,4.0
# From MPEC 2021-UA9
C/2020 S3 (Erasmus),e,19.8950,222.8831,349.9373,184.2575,0.0003941,0.99784199,0.0000,12/12.6895/2020,2000,g 13.5,3.2
# From MPEC 2021-UA9
C/2020 S4 (PANSTARRS),h,02/09.4094/2023,20.5738,117.7184,21.0212,1.000205,3.369289,2000,8.5,3.2
# From MPEC 2021-BE3
P/2020 S5 (PANSTARRS),e,12.3537,316.0001,53.0801,4.050764,0.1208923,0.33857081,55.2905,11/09.0/2021,2000,g 14.5,4.0
# From MPEC 2021-P47
P/2020 S6 (Leonard),e,15.4590,242.5587,176.6635,3.599923,0.1442993,0.47926600,50.5567,11/09.0/2021,2000,g 16.0,4.0
# From MPEC 2021-BE3
P/2020 S7 (PANSTARRS),e,16.0920,328.0183,40.4542,5.024925,0.0875003,0.41063791,31.1251,11/09.0/2021,2000,g 14.5,4.0
# From MPEC 2021-P47
C/2020 S8 (Lemmon),e,108.5230,24.0539,160.3341,276.7711,0.0002141,0.99145940,0.0000,04/10.9305/2021,2000,g 12.5,4.0
# From MPEC 2021-UA9
C/2020 T2 (Palomar),e,27.8725,83.0479,150.3899,311.8172,0.0001790,0.99341044,0.0000,07/11.1613/2021,2000,g 11.0,3.2
# From MPEC 2021-N06
P/2020 T3 (PANSTARRS),e,7.2954,74.0116,357.0376,3.517444,0.1494043,0.59164977,43.7047,11/09.0/2021,2000,g 18.0,3.2
# From MPEC 2021-N06
C/2020 T4 (PANSTARRS),h,07/05.2575/2021,83.8148,50.6179,79.6084,1.000061,2.191860,2000,13.0,3.2
# From MPEC 2021-BE3
C/2020 T5 (Lemmon),e,66.5938,237.8608,90.3042,841.9066,0.0000403,0.99775592,0.0000,10/09.6212/2020,2000,g 16.0,4.0
# From MPEC 2021-N06
P/2020 U2 (PANSTARRS),e,6.4212,342.8995,84.6415,3.777928,0.1342220,0.51068461,42.7209,11/09.0/2021,2000,g 18.0,4.0
# From MPEC 2021-S45
C/2020 U3 (Rankin),e,30.1738,282.6790,124.2704,65.36934,0.0018648,0.96517931,0.5147,11/09.0/2021,2000,g 15.0,4.0
# From MPEC 2021-UA9
C/2020 U4 (PANSTARRS),h,04/07.8619/2022,167.0362,120.0167,69.5236,1.001644,5.353791,2000,7.0,4.0
# From MPEC 2021-UA9
C/2020 U5 (PANSTARRS),e,97.2724,107.3395,75.4132,6797,0.0000018,0.99944744,0.0000,04/27.8634/2022,2000,g  8.0,4.0
# From MPEC 2021-UA9
C/2020 V2 (ZTF),h,05/08.4682/2023,131.6069,212.3569,162.3935,1.001280,2.228342,2000,4.9,4.0
# From MPEC 2021-N06
P/2020 V3 (PANSTARRS),e,23.0315,198.2669,249.3175,8.368909,0.0407100,0.25555715,11.1352,11/09.0/2021,2000,g  8.3,4.0
# From MPEC 2021-UA9
P/2020 V4 (Rankin),e,14.2428,203.4999,256.9894,9.347430,0.0344878,0.44919976,3.9390,11/09.0/2021,2000,g  9.0,4.0
# From MPEC 2021-BE3
P/2020 W1 (Rankin),e,10.7916,124.2616,264.8727,7.202381,0.0509906,0.26574444,29.7047,11/09.0/2021,2000,g 10.0,4.0
# From MPEC 2021-BE3
C/2020 W5 (Lemmon),h,11/30.0817/2020,88.5832,75.5039,24.4792,1.000794,3.364230,2000,15.0,4.0
# From MPEC 2021-P47
P/2020 X1 (ATLAS),e,31.6959,56.0211,323.2745,4.526717,0.1023361,0.36547866,48.7739,11/09.0/2021,2000,g 13.0,4.0
# From MPEC 2021-U31
C/2020 X2 (ATLAS),e,18.1894,105.4552,347.3385,16.40456,0.0148340,0.76664304,5.3135,11/09.0/2021,2000,g 10.6,4.0
# From MPEC 2021-S45
C/2020 X4 (Leonard),e,80.5854,161.8891,140.1297,43.68253,0.0034138,0.88071809,1.2210,11/09.0/2021,2000,g  9.0,4.0
# From MPEC 2021-R75
C/2020 Y2 (ATLAS),e,101.2949,26.5102,266.0984,1201,0.0000237,0.99739075,0.0000,06/17.6619/2022,2000,g  6.5,4.0
# From MPEC 2021-R75
C/2020 Y3 (ATLAS),e,83.1008,191.4327,342.0312,148.9999,0.0005419,0.98658375,0.0000,12/03.4576/2020,2000,g 13.5,4.0
# From MPEC 2021-UA9
C/2021 A1 (Leonard),h,01/03.3002/2022,132.6845,255.8952,225.0924,1.000064,0.615259,2000,8.5,4.0
# From MPEC 2021-U31
C/2021 A2 (NEOWISE),e,106.9775,125.2359,338.8332,250.7487,0.0002482,0.99436595,0.0000,01/22.6146/2021,2000,g 13.5,4.0
# From MPEC 2021-R75
C/2021 A4 (NEOWISE),e,111.5685,307.0875,204.6741,42.99240,0.0034964,0.97334945,0.0000,03/20.0296/2021,2000,g 16.0,4.0
# From MPEC 2021-BE3
P/2021 A5 (PANSTARRS),e,18.1881,328.7672,61.1553,3.046695,0.1853363,0.13977021,67.1402,11/09.0/2021,2000,g 15.0,4.0
# From MPEC 2021-P47
C/2021 A6 (PANSTARRS),e,75.6130,164.0791,351.7301,11845,0.0000008,0.99933061,0.0000,05/04.7296/2021,2000,g  7.0,4.0
# From MPEC 2021-N06
C/2021 A7 (NEOWISE),e,78.1498,154.5191,356.0563,5679,0.0000023,0.99965351,0.0000,07/15.3114/2021,2000,g 10.0,4.0
# From MPEC 2021-P47
C/2021 A9 (PANSTARRS),h,12/01.4104/2023,158.0283,314.8411,211.4685,1.004187,7.758759,2000,6.0,4.0
# From MPEC 2021-N06
C/2021 A10 (NEOWISE),e,151.5303,188.3497,82.2879,93.82488,0.0010845,0.98647549,0.0000,03/15.2750/2021,2000,g 19.0,4.0
# From MPEC 2021-O56
C/2021 B2 (PANSTARRS),e,38.0926,120.5549,334.9652,347.0337,0.0001525,0.99275859,0.0000,05/04.2583/2021,2000,g 14.0,4.0
# From MPEC 2021-N06
C/2021 B3 (NEOWISE),e,119.4847,67.2871,293.5558,34.90881,0.0047786,0.93812092,1.1617,11/09.0/2021,2000,g 13.5,4.0
# From MPEC 2021-P47
C/2021 C1 (Rankin),e,143.0429,186.8945,336.3084,51460,0.0000001,0.99993235,0.0000,12/07.1342/2020,2000,g 11.5,4.0
# From MPEC 2021-U31
P/2021 C2 (PANSTARRS),e,21.9274,66.4855,78.7890,9.536903,0.0334652,0.48725871,8.6266,11/09.0/2021,2000,g 12.0,4.0
# From MPEC 2021-N06
C/2021 C3 (Catalina),e,122.1642,181.9238,357.1424,63.22341,0.0019606,0.96399645,0.5285,11/09.0/2021,2000,g 14.0,4.0
# From MPEC 2021-P47
C/2021 C4 (ATLAS),e,132.8470,194.2753,320.2358,10601,0.0000009,0.99957511,0.0000,01/17.1099/2021,2000,g  9.0,4.0
# From MPEC 2021-N06
C/2021 C5 (PANSTARRS),e,50.7871,323.6908,270.9178,5162,0.0000027,0.99937203,0.0000,02/11.0266/2023,2000,g  9.0,4.0
# From MPEC 2021-N06
C/2021 C6 (Lemmon),h,11/13.3053/2021,164.6261,332.1554,203.5580,1.001983,3.271348,2000,12.0,4.0
# From MPEC 2021-N06
C/2021 D1 (SWAN),e,31.4593,311.2709,72.2284,97.46484,0.0010243,0.99074737,0.0000,02/27.6225/2021,2000,g 13.0,4.0
# From MPEC 2021-UA9
C/2021 D2 (ZTF),h,02/03.9839/2022,83.8312,305.6771,125.0304,1.001312,2.946279,2000,9.0,4.0
# From MPEC 2021-N06
A/2021 E2,e,167.4880,190.8157,342.4601,235.8950,0.0002720,0.99030069,0.0000,12/10.4734/2020,2000,g 15.0,2.0
# From MPEC 2021-UA9
C/2021 E3 (ZTF),h,06/11.9095/2022,112.5606,104.4662,228.8449,1.000814,1.777438,2000,8.5,4.0
# From MPEC 2021-P47
A/2021 E4,e,116.3608,171.1733,48.2824,717.4599,0.0000513,0.99348260,0.0000,04/25.3552/2022,2000,g 13.5,2.0
# From MPEC 2021-R75
A/2021 F1,e,107.3236,203.4505,146.8198,237.2049,0.0002698,0.99580311,0.0000,04/06.8741/2022,2000,g 17.5,2.0
# From MPEC 2021-J72
C/2021 G1 (Leonard),e,131.5651,270.6950,107.4791,75.19776,0.0015115,0.95447161,0.1659,11/09.0/2021,2000,g 14.0,4.0
# From MPEC 2021-UA9
C/2021 G2 (ATLAS),e,48.4738,221.1288,343.3789,3913,0.0000040,0.99872814,0.0000,09/10.0423/2024,2000,g  5.5,4.0
# From MPEC 2021-M86
C/2021 G3 (PANSTARRS),h,10/18.6176/2021,102.8830,147.4188,10.6494,1.001096,5.181136,2000,10.5,4.0
# From MPEC 2021-U31
P/2021 HS (PANSTARRS),e,12.1711,262.3905,46.0858,4.195027,0.1147102,0.81014672,10.8532,11/09.0/2021,2000,g 22.0,4.0
# From MPEC 2021-R75
C/2021 J1 (Maury-Attard),e,92.7083,88.3153,147.3039,26.22978,0.0073369,0.93364981,1.9264,11/09.0/2021,2000,g 15.5,4.0
# From MPEC 2021-R75
C/2021 J2 (PANSTARRS),e,156.2081,23.3289,172.0585,117.3080,0.0007757,0.95987734,0.0369,11/09.0/2021,2000,g 12.0,4.0
# From MPEC 2021-S45
P/2021 J3 (ATLAS),e,14.5570,111.2203,125.8862,8.940362,0.0368699,0.45051552,31.6413,11/09.0/2021,2000,g  7.0,4.0
# From MPEC 2021-UA9
C/2021 K1 (ATLAS),e,16.2759,140.9050,184.2925,12.72396,0.0217155,0.80369923,4.0927,11/09.0/2021,2000,g 11.0,4.0
# From MPEC 2021-R75
C/2021 K2 (MASTER),h,09/09.1798/2021,100.8386,282.2481,343.3258,1.000623,5.466649,2000,8.0,4.0
# From MPEC 2021-U31
C/2021 K3 (Catalina),h,02/02.5603/2022,134.7815,114.4505,181.9805,1.003540,5.229905,2000,10.0,4.0
# From MPEC 2021-U31
